2025-313U               
1 67266U 25313U   26009.65851612  .00010472  00000+0  48613-3 0  9990
2 67266  97.4139  86.9224 0015038 194.5469 165.5335 15.20105527  1847
2025-313V               
1 67267U 25313V   26009.78993347  .00009825  00000+0  45581-3 0  9998
2 67267  97.4120  87.0407 0014256 199.9467 160.1212 15.20155233  1867
ZORKY-2M 7              
1 67268U 25313W   26009.65860788  .00009114  00000+0  42398-3 0  9991
2 67268  97.4122  86.9095 0015190 195.5212 164.5559 15.20072628  1845
2025-313X               
1 67269U 25313X   26009.65816242  .00014154  00000+0  65367-3 0  9999
2 67269  97.4147  86.9237 0015041 193.8345 166.2480 15.20209022  1846
2025-313Y               
1 67270U 25313Y   26009.52709152  .00010087  00000+0  46881-3 0  9999
2 67270  97.4122  86.7903 0015132 196.1312 163.9443 15.20073556  1822
2025-313Z               
1 67271U 25313Z   26009.65899623  .00005210  00000+0  24460-3 0  9998
2 67271  97.4117  86.9103 0015119 191.6069 168.4820 15.19967221  1845
2025-313AA              
1 67272U 25313AA  26009.65781166  .00013620  00000+0  62849-3 0  9998
2 67272  97.4121  86.9101 0014886 195.9409 164.1360 15.20249724  1849
2025-313AB              
1 67273U 25313AB  26009.65883296  .00003805  00000+0  17962-3 0  9996
2 67273  97.4135  86.9123 0014019 200.4705 159.5970 15.19965221  1848
2025-313AC              
1 67274U 25313AC  26009.65825078  .00007809  00000+0  36357-3 0  9998
2 67274  97.4110  86.9179 0014828 195.1224 164.9570 15.20098152  1845
2025-313AD              
1 67275U 25313AD  26009.65783514  .00007952  00000+0  36969-3 0  9995
2 67275  97.4085  86.9150 0014028 198.0025 162.0716 15.20153103  1848
2025-313AE              
1 67276U 25313AE  26009.78945384  .00006736  00000+0  31364-3 0  9998
2 67276  97.4089  87.0445 0013993 197.5921 162.4831 15.20156632  1865
2025-313AF              
1 67277U 25313AF  26009.46043205  .00007832  00000+0  36446-3 0  9999
2 67277  97.4091  86.7216 0013947 198.6559 161.4166 15.20126332  1818
