CCSDS_OMM_VERS = 2.0
CREATION_DATE  = 
ORIGINATOR     = 

OBJECT_NAME    = 2025-313U
OBJECT_ID      = 2025-313U
CENTER_NAME    = EARTH
REF_FRAME      = TEME
TIME_SYSTEM    = UTC
MEAN_ELEMENT_THEORY = SGP/SGP4

EPOCH          = 2026-01-09T15:48:15.792768
MEAN_MOTION    = 15.20105527
ECCENTRICITY   = .00150381
INCLINATION    = 97.4139
RA_OF_ASC_NODE = 86.9224
ARG_OF_PERICENTER = 194.5469
MEAN_ANOMALY   = 165.5335

EPHEMERIS_TYPE = 0
CLASSIFICATION_TYPE = U
NORAD_CAT_ID   = 67266
ELEMENT_SET_NO = 999
REV_AT_EPOCH   = 184
BSTAR          = .48613041E-3
MEAN_MOTION_DOT = .10472E-3
MEAN_MOTION_DDOT = 0

CCSDS_OMM_VERS = 2.0
CREATION_DATE  = 
ORIGINATOR     = 

OBJECT_NAME    = 2025-313V
OBJECT_ID      = 2025-313V
CENTER_NAME    = EARTH
REF_FRAME      = TEME
TIME_SYSTEM    = UTC
MEAN_ELEMENT_THEORY = SGP/SGP4

EPOCH          = 2026-01-09T18:57:30.251808
MEAN_MOTION    = 15.20155233
ECCENTRICITY   = .00142564
INCLINATION    = 97.4120
RA_OF_ASC_NODE = 87.0407
ARG_OF_PERICENTER = 199.9467
MEAN_ANOMALY   = 160.1212

EPHEMERIS_TYPE = 0
CLASSIFICATION_TYPE = U
NORAD_CAT_ID   = 67267
ELEMENT_SET_NO = 999
REV_AT_EPOCH   = 186
BSTAR          = .45581042E-3
MEAN_MOTION_DOT = .9825E-4
MEAN_MOTION_DDOT = 0

CCSDS_OMM_VERS = 2.0
CREATION_DATE  = 
ORIGINATOR     = 

OBJECT_NAME    = ZORKY-2M 7
OBJECT_ID      = 2025-313W
CENTER_NAME    = EARTH
REF_FRAME      = TEME
TIME_SYSTEM    = UTC
MEAN_ELEMENT_THEORY = SGP/SGP4

EPOCH          = 2026-01-09T15:48:23.720832
MEAN_MOTION    = 15.20072628
ECCENTRICITY   = .00151907
INCLINATION    = 97.4122
RA_OF_ASC_NODE = 86.9095
ARG_OF_PERICENTER = 195.5212
MEAN_ANOMALY   = 164.5559

EPHEMERIS_TYPE = 0
CLASSIFICATION_TYPE = U
NORAD_CAT_ID   = 67268
ELEMENT_SET_NO = 999
REV_AT_EPOCH   = 184
BSTAR          = .4239826E-3
MEAN_MOTION_DOT = .9114E-4
MEAN_MOTION_DDOT = 0

CCSDS_OMM_VERS = 2.0
CREATION_DATE  = 
ORIGINATOR     = 

OBJECT_NAME    = 2025-313X
OBJECT_ID      = 2025-313X
CENTER_NAME    = EARTH
REF_FRAME      = TEME
TIME_SYSTEM    = UTC
MEAN_ELEMENT_THEORY = SGP/SGP4

EPOCH          = 2026-01-09T15:47:45.233088
MEAN_MOTION    = 15.20209022
ECCENTRICITY   = .00150414
INCLINATION    = 97.4147
RA_OF_ASC_NODE = 86.9237
ARG_OF_PERICENTER = 193.8345
MEAN_ANOMALY   = 166.2480

EPHEMERIS_TYPE = 0
CLASSIFICATION_TYPE = U
NORAD_CAT_ID   = 67269
ELEMENT_SET_NO = 999
REV_AT_EPOCH   = 184
BSTAR          = .65366708E-3
MEAN_MOTION_DOT = .14154E-3
MEAN_MOTION_DDOT = 0

CCSDS_OMM_VERS = 2.0
CREATION_DATE  = 
ORIGINATOR     = 

OBJECT_NAME    = 2025-313Y
OBJECT_ID      = 2025-313Y
CENTER_NAME    = EARTH
REF_FRAME      = TEME
TIME_SYSTEM    = UTC
MEAN_ELEMENT_THEORY = SGP/SGP4

EPOCH          = 2026-01-09T12:39:00.707328
MEAN_MOTION    = 15.20073556
ECCENTRICITY   = .00151323
INCLINATION    = 97.4122
RA_OF_ASC_NODE = 86.7903
ARG_OF_PERICENTER = 196.1312
MEAN_ANOMALY   = 163.9443

EPHEMERIS_TYPE = 0
CLASSIFICATION_TYPE = U
NORAD_CAT_ID   = 67270
ELEMENT_SET_NO = 999
REV_AT_EPOCH   = 182
BSTAR          = .46881311E-3
MEAN_MOTION_DOT = .10087E-3
MEAN_MOTION_DDOT = 0

CCSDS_OMM_VERS = 2.0
CREATION_DATE  = 
ORIGINATOR     = 

OBJECT_NAME    = 2025-313Z
OBJECT_ID      = 2025-313Z
CENTER_NAME    = EARTH
REF_FRAME      = TEME
TIME_SYSTEM    = UTC
MEAN_ELEMENT_THEORY = SGP/SGP4

EPOCH          = 2026-01-09T15:48:57.274272
MEAN_MOTION    = 15.19967221
ECCENTRICITY   = .00151198
INCLINATION    = 97.4117
RA_OF_ASC_NODE = 86.9103
ARG_OF_PERICENTER = 191.6069
MEAN_ANOMALY   = 168.4820

EPHEMERIS_TYPE = 0
CLASSIFICATION_TYPE = U
NORAD_CAT_ID   = 67271
ELEMENT_SET_NO = 999
REV_AT_EPOCH   = 184
BSTAR          = .24459912E-3
MEAN_MOTION_DOT = .521E-4
MEAN_MOTION_DDOT = 0

CCSDS_OMM_VERS = 2.0
CREATION_DATE  = 
ORIGINATOR     = 

OBJECT_NAME    = 2025-313AA
OBJECT_ID      = 2025-313AA
CENTER_NAME    = EARTH
REF_FRAME      = TEME
TIME_SYSTEM    = UTC
MEAN_ELEMENT_THEORY = SGP/SGP4

EPOCH          = 2026-01-09T15:47:14.927424
MEAN_MOTION    = 15.20249724
ECCENTRICITY   = .00148869
INCLINATION    = 97.4121
RA_OF_ASC_NODE = 86.9101
ARG_OF_PERICENTER = 195.9409
MEAN_ANOMALY   = 164.1360

EPHEMERIS_TYPE = 0
CLASSIFICATION_TYPE = U
NORAD_CAT_ID   = 67272
ELEMENT_SET_NO = 999
REV_AT_EPOCH   = 184
BSTAR          = .62848913E-3
MEAN_MOTION_DOT = .1362E-3
MEAN_MOTION_DDOT = 0

CCSDS_OMM_VERS = 2.0
CREATION_DATE  = 
ORIGINATOR     = 

OBJECT_NAME    = 2025-313AB
OBJECT_ID      = 2025-313AB
CENTER_NAME    = EARTH
REF_FRAME      = TEME
TIME_SYSTEM    = UTC
MEAN_ELEMENT_THEORY = SGP/SGP4

EPOCH          = 2026-01-09T15:48:43.167744
MEAN_MOTION    = 15.19965221
ECCENTRICITY   = .00140192
INCLINATION    = 97.4135
RA_OF_ASC_NODE = 86.9123
ARG_OF_PERICENTER = 200.4705
MEAN_ANOMALY   = 159.5970

EPHEMERIS_TYPE = 0
CLASSIFICATION_TYPE = U
NORAD_CAT_ID   = 67273
ELEMENT_SET_NO = 999
REV_AT_EPOCH   = 184
BSTAR          = .17961685E-3
MEAN_MOTION_DOT = .3805E-4
MEAN_MOTION_DDOT = 0

CCSDS_OMM_VERS = 2.0
CREATION_DATE  = 
ORIGINATOR     = 

OBJECT_NAME    = 2025-313AC
OBJECT_ID      = 2025-313AC
CENTER_NAME    = EARTH
REF_FRAME      = TEME
TIME_SYSTEM    = UTC
MEAN_ELEMENT_THEORY = SGP/SGP4

EPOCH          = 2026-01-09T15:47:52.867392
MEAN_MOTION    = 15.20098152
ECCENTRICITY   = .00148284
INCLINATION    = 97.4110
RA_OF_ASC_NODE = 86.9179
ARG_OF_PERICENTER = 195.1224
MEAN_ANOMALY   = 164.9570

EPHEMERIS_TYPE = 0
CLASSIFICATION_TYPE = U
NORAD_CAT_ID   = 67274
ELEMENT_SET_NO = 999
REV_AT_EPOCH   = 184
BSTAR          = .36357019E-3
MEAN_MOTION_DOT = .7809E-4
MEAN_MOTION_DDOT = 0

CCSDS_OMM_VERS = 2.0
CREATION_DATE  = 
ORIGINATOR     = 

OBJECT_NAME    = 2025-313AD
OBJECT_ID      = 2025-313AD
CENTER_NAME    = EARTH
REF_FRAME      = TEME
TIME_SYSTEM    = UTC
MEAN_ELEMENT_THEORY = SGP/SGP4

EPOCH          = 2026-01-09T15:47:16.956096
MEAN_MOTION    = 15.20153103
ECCENTRICITY   = .00140289
INCLINATION    = 97.4085
RA_OF_ASC_NODE = 86.9150
ARG_OF_PERICENTER = 198.0025
MEAN_ANOMALY   = 162.0716

EPHEMERIS_TYPE = 0
CLASSIFICATION_TYPE = U
NORAD_CAT_ID   = 67275
ELEMENT_SET_NO = 999
REV_AT_EPOCH   = 184
BSTAR          = .36969315E-3
MEAN_MOTION_DOT = .7952E-4
MEAN_MOTION_DDOT = 0

CCSDS_OMM_VERS = 2.0
CREATION_DATE  = 
ORIGINATOR     = 

OBJECT_NAME    = 2025-313AE
OBJECT_ID      = 2025-313AE
CENTER_NAME    = EARTH
REF_FRAME      = TEME
TIME_SYSTEM    = UTC
MEAN_ELEMENT_THEORY = SGP/SGP4

EPOCH          = 2026-01-09T18:56:48.811776
MEAN_MOTION    = 15.20156632
ECCENTRICITY   = .0013993
INCLINATION    = 97.4089
RA_OF_ASC_NODE = 87.0445
ARG_OF_PERICENTER = 197.5921
MEAN_ANOMALY   = 162.4831

EPHEMERIS_TYPE = 0
CLASSIFICATION_TYPE = U
NORAD_CAT_ID   = 67276
ELEMENT_SET_NO = 999
REV_AT_EPOCH   = 186
BSTAR          = .31364052E-3
MEAN_MOTION_DOT = .6736E-4
MEAN_MOTION_DDOT = 0

CCSDS_OMM_VERS = 2.0
CREATION_DATE  = 
ORIGINATOR     = 

OBJECT_NAME    = 2025-313AF
OBJECT_ID      = 2025-313AF
CENTER_NAME    = EARTH
REF_FRAME      = TEME
TIME_SYSTEM    = UTC
MEAN_ELEMENT_THEORY = SGP/SGP4

EPOCH          = 2026-01-09T11:03:01.329120
MEAN_MOTION    = 15.20126332
ECCENTRICITY   = .00139472
INCLINATION    = 97.4091
RA_OF_ASC_NODE = 86.7216
ARG_OF_PERICENTER = 198.6559
MEAN_ANOMALY   = 161.4166

EPHEMERIS_TYPE = 0
CLASSIFICATION_TYPE = U
NORAD_CAT_ID   = 67277
ELEMENT_SET_NO = 999
REV_AT_EPOCH   = 181
BSTAR          = .36445683E-3
MEAN_MOTION_DOT = .7832E-4
MEAN_MOTION_DDOT = 0

